ONEWEB-0311             
1 49097U 21075Y   25143.84698480  .00000048  00000+0  89539-4 0  9995
2 49097  87.9064  83.3810 0002385  73.8067 286.3327 13.17649198182356
ONEWEB-0312             
1 49098U 21075Z   25143.78623471 -.00000016  00000+0 -75062-4 0  9990
2 49098  87.9062  83.4240 0002449  82.2202 277.9207 13.17648459182328
ONEWEB-0313             
1 49099U 21075AA  25143.79115253  .00000045  00000+0  81725-4 0  9999
2 49099  87.9063  83.4388 0002052  76.5294 283.6066 13.17648833182312
ONEWEB-0314             
1 49100U 21075AB  25143.83347282 -.00000025  00000+0 -97598-4 0  9991
2 49100  87.9060  83.3628 0002445  80.4289 279.7118 13.17648063182298
ONEWEB-0315             
1 49101U 21075AC  25143.78996094  .00000281  00000+0  74569-3 0  9991
2 49101  87.8883  68.1043 0002135  69.3365 290.7993 13.12442086184096
ONEWEB-0316             
1 49102U 21075AD  25143.76132047  .00000021  00000+0  21418-4 0  9998
2 49102  87.9162  52.8622 0002032  73.2199 286.9156 13.18686015185880
ONEWEB-0317             
1 49103U 21075AE  25143.78345191  .00000413  00000+0  11130-2 0  9990
2 49103  87.8884  68.1205 0001992 103.8891 256.2459 13.12445683184110
ONEWEB-0318             
1 49104U 21075AF  25143.75815486  .00000016  00000+0  90831-5 0  9994
2 49104  87.9163  52.8481 0002099  72.2881 287.8481 13.18684573185840
